CCSDS_OMM_VERS = 2.0
CREATION_DATE  = 
ORIGINATOR     = 

OBJECT_NAME    = 2026-023G
OBJECT_ID      = 2026-023G
CENTER_NAME    = EARTH
REF_FRAME      = TEME
TIME_SYSTEM    = UTC
MEAN_ELEMENT_THEORY = SGP/SGP4

EPOCH          = 2026-02-21T06:58:33.455136
MEAN_MOTION    = 15.22709648
ECCENTRICITY   = .00228942
INCLINATION    = 96.6278
RA_OF_ASC_NODE = 129.6288
ARG_OF_PERICENTER = 174.4525
MEAN_ANOMALY   = 185.6972

EPHEMERIS_TYPE = 0
CLASSIFICATION_TYPE = U
NORAD_CAT_ID   = 67680
ELEMENT_SET_NO = 999
REV_AT_EPOCH   = 234
BSTAR          = .56946016E-3
MEAN_MOTION_DOT = .13324E-3
MEAN_MOTION_DDOT = 0

CCSDS_OMM_VERS = 2.0
CREATION_DATE  = 
ORIGINATOR     = 

OBJECT_NAME    = 2026-023H
OBJECT_ID      = 2026-023H
CENTER_NAME    = EARTH
REF_FRAME      = TEME
TIME_SYSTEM    = UTC
MEAN_ELEMENT_THEORY = SGP/SGP4

EPOCH          = 2026-02-20T23:05:08.880576
MEAN_MOTION    = 15.22685851
ECCENTRICITY   = .0022907
INCLINATION    = 96.6429
RA_OF_ASC_NODE = 129.3474
ARG_OF_PERICENTER = 175.0206
MEAN_ANOMALY   = 185.1265

EPHEMERIS_TYPE = 0
CLASSIFICATION_TYPE = U
NORAD_CAT_ID   = 67681
ELEMENT_SET_NO = 999
REV_AT_EPOCH   = 229
BSTAR          = .3001E-5
MEAN_MOTION_DOT = .12E-6
MEAN_MOTION_DDOT = 0

CCSDS_OMM_VERS = 2.0
CREATION_DATE  = 
ORIGINATOR     = 

OBJECT_NAME    = 2026-023J
OBJECT_ID      = 2026-023J
CENTER_NAME    = EARTH
REF_FRAME      = TEME
TIME_SYSTEM    = UTC
MEAN_ELEMENT_THEORY = SGP/SGP4

EPOCH          = 2026-02-21T06:57:36.470880
MEAN_MOTION    = 15.22777110
ECCENTRICITY   = .0023124
INCLINATION    = 96.6377
RA_OF_ASC_NODE = 129.6485
ARG_OF_PERICENTER = 170.6427
MEAN_ANOMALY   = 189.5248

EPHEMERIS_TYPE = 0
CLASSIFICATION_TYPE = U
NORAD_CAT_ID   = 67682
ELEMENT_SET_NO = 999
REV_AT_EPOCH   = 234
BSTAR          = .56800899E-3
MEAN_MOTION_DOT = .13318E-3
MEAN_MOTION_DDOT = 0

CCSDS_OMM_VERS = 2.0
CREATION_DATE  = 
ORIGINATOR     = 

OBJECT_NAME    = ISS OBJECT XZ
OBJECT_ID      = 1998-067XZ
CENTER_NAME    = EARTH
REF_FRAME      = TEME
TIME_SYSTEM    = UTC
MEAN_ELEMENT_THEORY = SGP/SGP4

EPOCH          = 2026-02-21T07:10:05.044800
MEAN_MOTION    = 15.50445364
ECCENTRICITY   = .00100734
INCLINATION    = 51.6313
RA_OF_ASC_NODE = 153.2064
ARG_OF_PERICENTER = 131.4017
MEAN_ANOMALY   = 228.7839

EPHEMERIS_TYPE = 0
CLASSIFICATION_TYPE = U
NORAD_CAT_ID   = 67683
ELEMENT_SET_NO = 999
REV_AT_EPOCH   = 224
BSTAR          = .66700508E-3
MEAN_MOTION_DOT = .3847E-3
MEAN_MOTION_DDOT = 0

CCSDS_OMM_VERS = 2.0
CREATION_DATE  = 
ORIGINATOR     = 

OBJECT_NAME    = GXIBA-1
OBJECT_ID      = 1998-067YA
CENTER_NAME    = EARTH
REF_FRAME      = TEME
TIME_SYSTEM    = UTC
MEAN_ELEMENT_THEORY = SGP/SGP4

EPOCH          = 2026-02-20T13:58:26.230656
MEAN_MOTION    = 15.51598585
ECCENTRICITY   = .0011811
INCLINATION    = 51.6312
RA_OF_ASC_NODE = 156.6723
ARG_OF_PERICENTER = 122.4211
MEAN_ANOMALY   = 237.7923

EPHEMERIS_TYPE = 0
CLASSIFICATION_TYPE = U
NORAD_CAT_ID   = 67684
ELEMENT_SET_NO = 999
REV_AT_EPOCH   = 213
BSTAR          = .10470195E-2
MEAN_MOTION_DOT = .63461E-3
MEAN_MOTION_DDOT = 0

CCSDS_OMM_VERS = 2.0
CREATION_DATE  = 
ORIGINATOR     = 

OBJECT_NAME    = CORAL
OBJECT_ID      = 1998-067YB
CENTER_NAME    = EARTH
REF_FRAME      = TEME
TIME_SYSTEM    = UTC
MEAN_ELEMENT_THEORY = SGP/SGP4

EPOCH          = 2026-02-21T07:07:57.921888
MEAN_MOTION    = 15.50652285
ECCENTRICITY   = .0012048
INCLINATION    = 51.6309
RA_OF_ASC_NODE = 153.1959
ARG_OF_PERICENTER = 128.0063
MEAN_ANOMALY   = 232.2015

EPHEMERIS_TYPE = 0
CLASSIFICATION_TYPE = U
NORAD_CAT_ID   = 67685
ELEMENT_SET_NO = 999
REV_AT_EPOCH   = 224
BSTAR          = .72112737E-3
MEAN_MOTION_DOT = .41994E-3
MEAN_MOTION_DDOT = 0

CCSDS_OMM_VERS = 2.0
CREATION_DATE  = 
ORIGINATOR     = 

OBJECT_NAME    = ISS OBJECT YC
OBJECT_ID      = 1998-067YC
CENTER_NAME    = EARTH
REF_FRAME      = TEME
TIME_SYSTEM    = UTC
MEAN_ELEMENT_THEORY = SGP/SGP4

EPOCH          = 2026-02-21T07:05:48.790176
MEAN_MOTION    = 15.50905757
ECCENTRICITY   = .00077258
INCLINATION    = 51.6315
RA_OF_ASC_NODE = 153.1862
ARG_OF_PERICENTER = 99.5470
MEAN_ANOMALY   = 260.6392

EPHEMERIS_TYPE = 0
CLASSIFICATION_TYPE = U
NORAD_CAT_ID   = 67686
ELEMENT_SET_NO = 999
REV_AT_EPOCH   = 224
BSTAR          = .846912E-3
MEAN_MOTION_DOT = .49817E-3
MEAN_MOTION_DDOT = 0

CCSDS_OMM_VERS = 2.0
CREATION_DATE  = 
ORIGINATOR     = 

OBJECT_NAME    = LEOPARD
OBJECT_ID      = 1998-067YD
CENTER_NAME    = EARTH
REF_FRAME      = TEME
TIME_SYSTEM    = UTC
MEAN_ELEMENT_THEORY = SGP/SGP4

EPOCH          = 2026-02-21T07:08:50.686368
MEAN_MOTION    = 15.50566387
ECCENTRICITY   = .00078066
INCLINATION    = 51.6314
RA_OF_ASC_NODE = 153.2007
ARG_OF_PERICENTER = 102.1661
MEAN_ANOMALY   = 258.0203

EPHEMERIS_TYPE = 0
CLASSIFICATION_TYPE = U
NORAD_CAT_ID   = 67687
ELEMENT_SET_NO = 999
REV_AT_EPOCH   = 216
BSTAR          = .6864564E-3
MEAN_MOTION_DOT = .39753E-3
MEAN_MOTION_DDOT = 0

CCSDS_OMM_VERS = 2.0
CREATION_DATE  = 
ORIGINATOR     = 

OBJECT_NAME    = ISS OBJECT YE
OBJECT_ID      = 1998-067YE
CENTER_NAME    = EARTH
REF_FRAME      = TEME
TIME_SYSTEM    = UTC
MEAN_ELEMENT_THEORY = SGP/SGP4

EPOCH          = 2026-02-21T07:06:41.706720
MEAN_MOTION    = 15.50790998
ECCENTRICITY   = .00077101
INCLINATION    = 51.6323
RA_OF_ASC_NODE = 153.1914
ARG_OF_PERICENTER = 100.0115
MEAN_ANOMALY   = 260.1745

EPHEMERIS_TYPE = 0
CLASSIFICATION_TYPE = U
NORAD_CAT_ID   = 67688
ELEMENT_SET_NO = 999
REV_AT_EPOCH   = 216
BSTAR          = .80053125E-3
MEAN_MOTION_DOT = .46852E-3
MEAN_MOTION_DDOT = 0

CCSDS_OMM_VERS = 2.0
CREATION_DATE  = 
ORIGINATOR     = 

OBJECT_NAME    = PRC TEST SPACECRAFT 4
OBJECT_ID      = 2026-024A
CENTER_NAME    = EARTH
REF_FRAME      = TEME
TIME_SYSTEM    = UTC
MEAN_ELEMENT_THEORY = SGP/SGP4

EPOCH          = 2026-02-21T06:45:41.247360
MEAN_MOTION    = 14.91675457
ECCENTRICITY   = .00061834
INCLINATION    = 49.9852
RA_OF_ASC_NODE = 99.7951
ARG_OF_PERICENTER = 296.9123
MEAN_ANOMALY   = 63.1186

EPHEMERIS_TYPE = 0
CLASSIFICATION_TYPE = U
NORAD_CAT_ID   = 67689
ELEMENT_SET_NO = 999
REV_AT_EPOCH   = 213
BSTAR          = .21626908E-4
MEAN_MOTION_DOT = -.24E-6
MEAN_MOTION_DDOT = 0

CCSDS_OMM_VERS = 2.0
CREATION_DATE  = 
ORIGINATOR     = 

OBJECT_NAME    = CZ-2F R/B
OBJECT_ID      = 2026-024B
CENTER_NAME    = EARTH
REF_FRAME      = TEME
TIME_SYSTEM    = UTC
MEAN_ELEMENT_THEORY = SGP/SGP4

EPOCH          = 2026-02-21T05:20:10.269312
MEAN_MOTION    = 15.33614510
ECCENTRICITY   = .01763133
INCLINATION    = 49.9861
RA_OF_ASC_NODE = 97.1470
ARG_OF_PERICENTER = 206.6088
MEAN_ANOMALY   = 152.5740

EPHEMERIS_TYPE = 0
CLASSIFICATION_TYPE = U
NORAD_CAT_ID   = 67690
ELEMENT_SET_NO = 999
REV_AT_EPOCH   = 216
BSTAR          = .36199298E-3
MEAN_MOTION_DOT = .19471E-3
MEAN_MOTION_DDOT = 0

CCSDS_OMM_VERS = 2.0
CREATION_DATE  = 
ORIGINATOR     = 

OBJECT_NAME    = CZ-2F DEB
OBJECT_ID      = 2026-024C
CENTER_NAME    = EARTH
REF_FRAME      = TEME
TIME_SYSTEM    = UTC
MEAN_ELEMENT_THEORY = SGP/SGP4

EPOCH          = 2026-02-21T06:09:49.036320
MEAN_MOTION    = 15.74855316
ECCENTRICITY   = .02242415
INCLINATION    = 49.9057
RA_OF_ASC_NODE = 93.4586
ARG_OF_PERICENTER = 216.0631
MEAN_ANOMALY   = 142.5040

EPHEMERIS_TYPE = 0
CLASSIFICATION_TYPE = U
NORAD_CAT_ID   = 67691
ELEMENT_SET_NO = 999
REV_AT_EPOCH   = 220
BSTAR          = .8728193E-3
MEAN_MOTION_DOT = .77552E-2
MEAN_MOTION_DDOT = .10419781E-4

