2026-023G               
1 67680U 26023G   26052.29066499  .00013324  00000+0  56946-3 0  9995
2 67680  96.6278 129.6288 0022894 174.4525 185.6972 15.22709648  2347
2026-023H               
1 67681U 26023H   26051.96190834  .00000012  00000+0  30010-5 0  9996
2 67681  96.6429 129.3474 0022907 175.0206 185.1265 15.22685851  2291
2026-023J               
1 67682U 26023J   26052.29000545  .00013318  00000+0  56801-3 0  9990
2 67682  96.6377 129.6485 0023124 170.6427 189.5248 15.22777110  2342
ISS OBJECT XZ           
1 67683U 98067XZ  26052.29866950  .00038470  00000+0  66701-3 0  9994
2 67683  51.6313 153.2064 0010073 131.4017 228.7839 15.50445364  2244
GXIBA-1                 
1 67684U 98067YA  26051.58224804  .00063461  00000+0  10470-2 0  9991
2 67684  51.6312 156.6723 0011811 122.4211 237.7923 15.51598585  2137
CORAL                   
1 67685U 98067YB  26052.29719817  .00041994  00000+0  72113-3 0  9994
2 67685  51.6309 153.1959 0012048 128.0063 232.2015 15.50652285  2248
ISS OBJECT YC           
1 67686U 98067YC  26052.29570359  .00049817  00000+0  84691-3 0  9997
2 67686  51.6315 153.1862 0007725  99.5470 260.6392 15.50905757  2247
LEOPARD                 
1 67687U 98067YD  26052.29780887  .00039753  00000+0  68646-3 0  9997
2 67687  51.6314 153.2007 0007806 102.1661 258.0203 15.50566387  2167
ISS OBJECT YE           
1 67688U 98067YE  26052.29631605  .00046852  00000+0  80053-3 0  9995
2 67688  51.6323 153.1914 0007710 100.0115 260.1745 15.50790998  2161
PRC TEST SPACECRAFT 4   
1 67689U 26024A   26052.28172740 -.00000024  00000+0  21627-4 0  9994
2 67689  49.9852  99.7951 0006183 296.9123  63.1186 14.91675457  2135
CZ-2F R/B               
1 67690U 26024B   26052.22234108  .00019471  00000+0  36199-3 0  9991
2 67690  49.9861  97.1470 0176313 206.6088 152.5740 15.33614510  2168
CZ-2F DEB               
1 67691U 26024C   26052.25681755  .00775520  10420-4  87282-3 0  9994
2 67691  49.9057  93.4586 0224241 216.0631 142.5040 15.74855316  2209
